[
    {
        "Altitude(m)": 604234.6205569559,
        "Argument of Periapsis(deg)": 0.0,
        "Eccentricity": 0.0,
        "Inclination(deg)": 60.0,
        "Latitude(deg)": 14.117300359469933,
        "Longitude(deg)": 51.72731088375382,
        "Mean Anomaly(deg)": -196.36359999999996,
        "RAAN(deg)": 340.00000000000006,
        "Satellite Name": "Test1 1506",
        "Satellite Number": 1506,
        "Semi-Major Axis(m)": 6980739.136638005,
        "Time(s)": 0
    },
    {
        "Altitude(m)": 604223.448785861,
        "Argument of Periapsis(deg)": 0.00010418945913296404,
        "Eccentricity": 0.0,
        "Inclination(deg)": 60.0,
        "Latitude(deg)": 13.582437062072417,
        "Longitude(deg)": 52.01422078496529,
        "Mean Anomaly(deg)": -195.74349385453812,
        "RAAN(deg)": 339.99957995086027,
        "Satellite Name": "Test1 1506",
        "Satellite Number": 1506,
        "Semi-Major Axis(m)": 6980739.136638005,
        "Time(s)": 10
    }
]